{
    "links": {
        "self": "http://www.neowsapp.com/rest/v1/neo/54054367?api_key=iIulBulltgU6a56xZRHN4H3l9WmuAYTsLGpBGhQ2"
    },
    "id": "54054367",
    "neo_reference_id": "54054367",
    "name": "(2020 SA)",
    "designation": "2020 SA",
    "nasa_jpl_url": "http://ssd.jpl.nasa.gov/sbdb.cgi?sstr=54054367",
    "absolute_magnitude_h": 24.344,
    "estimated_diameter": {
        "kilometers": {
            "estimated_diameter_min": 0.0359546426,
            "estimated_diameter_max": 0.0803970251
        },
        "meters": {
            "estimated_diameter_min": 35.9546426426,
            "estimated_diameter_max": 80.3970250555
        },
        "miles": {
            "estimated_diameter_min": 0.0223411723,
            "estimated_diameter_max": 0.0499563799
        },
        "feet": {
            "estimated_diameter_min": 117.9614297674,
            "estimated_diameter_max": 263.7697756831
        }
    },
    "is_potentially_hazardous_asteroid": false,
    "close_approach_data": [
        {
            "close_approach_date": "2020-10-04",
            "close_approach_date_full": "2020-Oct-04 14:16",
            "epoch_date_close_approach": 1601820960000,
            "relative_velocity": {
                "kilometers_per_second": "11.0402495992",
                "kilometers_per_hour": "39744.8985572478",
                "miles_per_hour": "24695.9343285299"
            },
            "miss_distance": {
                "astronomical": "0.0704932307",
                "lunar": "27.4218667423",
                "kilometers": "10545637.162138609",
                "miles": "6552755.0772624442"
            },
            "orbiting_body": "Earth"
        }
    ],
    "orbital_data": {
        "orbit_id": "3",
        "orbit_determination_date": "2020-09-25 06:31:58",
        "first_observation_date": "2020-09-10",
        "last_observation_date": "2020-09-25",
        "data_arc_in_days": 15,
        "observations_used": 17,
        "orbit_uncertainty": "8",
        "minimum_orbit_intersection": ".0547008",
        "jupiter_tisserand_invariant": "4.628",
        "epoch_osculation": "2459108.5",
        "eccentricity": ".4194981895600787",
        "semi_major_axis": "1.405166220417003",
        "inclination": "11.44342434029475",
        "ascending_node_longitude": "175.0806674575756",
        "orbital_period": "608.401082866278",
        "perihelion_distance": ".8157015349210917",
        "perihelion_argument": "266.1693559975912",
        "aphelion_distance": "1.994630905912914",
        "perihelion_time": "2459180.220229374067",
        "mean_anomaly": "317.5620699867508",
        "mean_motion": ".5917149231621688",
        "equinox": "J2000",
        "orbit_class": {
            "orbit_class_type": "APO",
            "orbit_class_description": "Near-Earth asteroid orbits which cross the Earth’s orbit similar to that of 1862 Apollo",
            "orbit_class_range": "a (semi-major axis) > 1.0 AU; q (perihelion) < 1.017 AU"
        }
    },
    "is_sentry_object": false
}